NORAD_CAT_ID,OBJECT_NAME,OBJECT_TYPE,EPOCH,MEAN_MOTION,ECCENTRICITY,INCLINATION,RA_OF_ASC_NODE,ARG_OF_PERICENTER,MEAN_ANOMALY,BSTAR,MEAN_MOTION_DOT,MEAN_MOTION_DDOT,TLE_LINE0,TLE_LINE1,TLE_LINE2,SEMIMAJOR_AXIS,PERIOD,APOGEE,PERIGEE,DECAYED
52678.0,STARLINK-4074,PAYLOAD,2024-05-18 23:01:36,15.08847878,0.0001233,53.2144,225.8737,107.265,252.8477,0.00039325,5.978e-05,0.0,0 STARLINK-4074,1 52678U 22053Y   24139.95944803  .00005978  00000-0  39325-3 0  9995,2 52678  53.2144 225.8737 0001233 107.2650 252.8477 15.08847878111142,6917.856,95.437,540.574,538.868,0.0
52678.0,STARLINK-4074,PAYLOAD,2024-05-19 13:20:05,15.08816333,0.000136,53.2153,223.1936,104.9756,255.1387,-0.00043888,-7.261e-05,0.0,0 STARLINK-4074,1 52678U 22053Y   24140.55561825 -.00007261  00000-0 -43888-3 0  9990,2 52678  53.2153 223.1936 0001360 104.9756 255.1387 15.08816333111661,6917.953,95.439,540.759,538.877,0.0
52678.0,STARLINK-4074,PAYLOAD,2024-05-19 14:55:28,15.08823539,0.000136,53.2159,222.8937,114.0716,246.0419,2.1505e-05,5.4e-07,0.0,0 STARLINK-4074,1 52678U 22053Y   24140.62185749  .00000054  00000-0  21505-4 0  9999,2 52678  53.2159 222.8937 0001360 114.0716 246.0419 15.08823539111247,6917.931,95.439,540.737,538.855,0.0
52678.0,STARLINK-4074,PAYLOAD,2024-05-20 11:35:28,15.08881936,0.0001211,53.2156,219.0317,101.4352,258.6776,0.0020654,0.00032774,0.0,0 STARLINK-4074,1 52678U 22053Y   24141.48297198  .00032774  00000-0  20654-2 0  9992,2 52678  53.2156 219.0317 0001211 101.4352 258.6776 15.08881936111379,6917.752,95.435,540.455,538.779,0.0
52678.0,STARLINK-4074,PAYLOAD,2024-05-21 05:04:43,15.08864877,0.0001096,53.2159,215.7602,111.5243,248.5866,0.0013676,0.00021559,0.0,0 STARLINK-4074,1 52678U 22053Y   24142.21160933  .00021559  00000-0  13676-2 0  9995,2 52678  53.2159 215.7602 0001096 111.5243 248.5866 15.08864877111489,6917.804,95.436,540.428,538.911,0.0
52678.0,STARLINK-4074,PAYLOAD,2024-05-21 08:15:29,15.08852681,9.32e-05,53.2183,215.1615,106.4631,253.6464,0.00075501,0.00011753,0.0,0 STARLINK-4074,1 52678U 22053Y   24142.34408984  .00011753  00000-0  75501-3 0  9991,2 52678  53.2183 215.1615 0000932 106.4631 253.6464 15.08852681111500,6917.842,95.437,540.351,539.062,0.0
52678.0,STARLINK-4074,PAYLOAD,2024-05-22 09:41:39,15.0884293,0.0001156,53.2157,210.4051,109.2422,250.8696,4.3591e-05,4.06e-06,0.0,0 STARLINK-4074,1 52678U 22053Y   24143.40393110  .00000406  00000-0  43591-4 0  9991,2 52678  53.2157 210.4051 0001156 109.2422 250.8696 15.08842930111660,6917.871,95.437,540.536,538.937,0.0
52678.0,STARLINK-4074,PAYLOAD,2024-05-23 04:46:17,15.08838003,0.0001235,53.2162,206.8403,107.2555,252.8572,0.00012333,1.675e-05,0.0,0 STARLINK-4074,1 52678U 22053Y   24144.19881512  .00001675  00000-0  12333-3 0  9994,2 52678  53.2162 206.8403 0001235 107.2555 252.8572 15.08838003111783,6917.886,95.438,540.606,538.897,0.0
52678.0,STARLINK-4074,PAYLOAD,2024-05-23 09:32:27,15.08837744,0.000119,53.2159,205.9482,95.6303,264.4825,0.00011902,1.607e-05,0.0,0 STARLINK-4074,1 52678U 22053Y   24144.39753605  .00001607  00000-0  11902-3 0  9993,2 52678  53.2159 205.9482 0001190  95.6303 264.4825 15.08837744112240,6917.887,95.438,540.576,538.929,0.0
52678.0,STARLINK-4074,PAYLOAD,2024-05-24 09:23:14,15.08840917,0.0001195,53.2146,201.4856,76.4573,283.6552,0.00012616,1.721e-05,0.0,0 STARLINK-4074,1 52678U 22053Y   24145.39113588  .00001721  00000-0  12616-3 0  9994,2 52678  53.2146 201.4856 0001195  76.4573 283.6552 15.08840917111967,6917.878,95.437,540.569,538.916,0.0
52678.0,STARLINK-4074,PAYLOAD,2024-05-24 20:30:50,15.08921316,0.0005642,53.2141,199.4024,260.0448,99.9907,0.0011799,0.00018586,0.0,0 STARLINK-4074,1 52678U 22053Y   24145.85475115  .00018586  00000-0  11799-2 0  9999,2 52678  53.2141 199.4024 0005642 260.0448  99.9907 15.08921316112032,6917.632,95.432,543.4,535.594,0.0
52678.0,STARLINK-4074,PAYLOAD,2024-05-25 06:00:02,15.08867087,0.0001229,53.2144,197.6327,89.2078,258.7684,-0.0018645,-0.0002986,0.0,0 STARLINK-4074,1 52678U 22053Y   24146.25002315 -.00029860  00000-0 -18645-2 0  9998,2 52678  53.2144 197.6327 0001229  89.2078 258.7684 15.08867087112095,6917.798,95.436,540.513,538.812,0.0
52678.0,STARLINK-4074,PAYLOAD,2024-05-25 10:49:24,15.08836704,0.0001219,53.2146,196.7297,82.4013,277.7117,3.9963e-05,3.48e-06,0.0,0 STARLINK-4074,1 52678U 22053Y   24146.45097884  .00000348  00000-0  39963-4 0  9991,2 52678  53.2146 196.7297 0001219  82.4013 277.7117 15.08836704112551,6917.89,95.438,540.599,538.912,0.0
52678.0,STARLINK-4074,PAYLOAD,2024-05-26 12:15:34,15.08849064,0.0001166,53.216,191.9676,86.2811,273.8315,6.881e-05,8.08e-06,0.0,0 STARLINK-4074,1 52678U 22053Y   24147.51081305  .00000808  00000-0  68810-4 0  9994,2 52678  53.2160 191.9676 0001166  86.2811 273.8315 15.08849064112284,6917.853,95.437,540.524,538.911,0.0
52678.0,STARLINK-4074,PAYLOAD,2024-05-27 02:34:03,15.08835532,0.0001364,53.2165,189.2959,82.4876,277.6271,0.00014794,2.067e-05,0.0,0 STARLINK-4074,1 52678U 22053Y   24148.10698102  .00002067  00000-0  14794-3 0  9999,2 52678  53.2165 189.2959 0001364  82.4876 277.6271 15.08835532112370,6917.894,95.438,540.703,538.815,0.0
52678.0,STARLINK-4074,PAYLOAD,2024-05-27 08:55:35,15.08838012,0.0001273,53.2163,188.1063,88.3274,271.7864,9.4371e-05,1.214e-05,0.0,0 STARLINK-4074,1 52678U 22053Y   24148.37194040  .00001214  00000-0  94371-4 0  9993,2 52678  53.2163 188.1063 0001273  88.3274 271.7864 15.08838012112849,6917.886,95.438,540.632,538.871,0.0
52678.0,STARLINK-4074,PAYLOAD,2024-05-28 06:00:00,15.08878236,0.0001304,53.2142,184.1648,87.8516,4.403,-0.0033626,-0.00053462,0.0,0 STARLINK-4074,1 52678U 22053Y   24149.25001157 -.00053462  00000-0 -33626-2 0  9995,2 52678  53.2142 184.1648 0001304  87.8516   4.4030 15.08878236112555,6917.764,95.435,540.531,538.726,0.0
52678.0,STARLINK-4074,PAYLOAD,2024-05-28 14:00:01,15.0881788,0.000134,53.2142,182.6693,79.9193,23.9606,0.0014347,0.00022605,0.0,0 STARLINK-4074,1 52678U 22053Y   24149.58334491  .00022605  00000-0  14347-2 0  9993,2 52678  53.2142 182.6693 0001340  79.9193  23.9606 15.08817880  5904,6917.948,95.439,540.74,538.886,0.0
52678.0,STARLINK-4074,PAYLOAD,2024-05-28 22:00:01,15.08814068,0.0001273,53.2147,181.1711,89.9572,25.563,0.0024228,0.00038454,0.0,0 STARLINK-4074,1 52678U 22053Y   24149.91668981  .00038454  00000-0  24228-2 0  9992,2 52678  53.2147 181.1711 0001273  89.9572  25.5630 15.08814068112652,6917.96,95.439,540.705,538.944,0.0
52678.0,STARLINK-4074,PAYLOAD,2024-05-29 08:37:09,15.08839604,0.000128,53.2158,179.1845,90.8493,269.2645,2.5833e-05,1.23e-06,0.0,0 STARLINK-4074,1 52678U 22053Y   24150.35913762  .00000123  00000-0  25833-4 0  9999,2 52678  53.2158 179.1845 0001280  90.8493 269.2645 15.08839604112713,6917.882,95.438,540.632,538.861,0.0
52678.0,STARLINK-4074,PAYLOAD,2024-05-30 05:17:12,15.08819419,0.0001434,53.2158,175.3181,91.7263,268.3893,-0.00010915,-2.024e-05,0.0,0 STARLINK-4074,1 52678U 22053Y   24151.22027972 -.00002024  00000-0 -10915-3 0  9993,2 52678  53.2158 175.3181 0001434  91.7263 268.3893 15.08819419112841,6917.943,95.439,540.8,538.816,0.0
52678.0,STARLINK-4074,PAYLOAD,2024-05-30 06:52:35,15.08818116,0.0001484,53.2166,175.0207,105.0717,255.0439,-0.00012541,-2.282e-05,0.0,0 STARLINK-4074,1 52678U 22053Y   24151.28652078 -.00002282  00000-0 -12541-3 0  9993,2 52678  53.2166 175.0207 0001484 105.0717 255.0439 15.08818116113285,6917.947,95.439,540.839,538.786,0.0
52678.0,STARLINK-4074,PAYLOAD,2024-05-31 05:07:59,15.0882989,0.0001292,53.2163,170.8615,60.7919,299.3202,4.6559e-05,4.53e-06,0.0,0 STARLINK-4074,1 52678U 22053Y   24152.21387755  .00000453  00000-0  46559-4 0  9997,2 52678  53.2163 170.8615 0001292  60.7919 299.3202 15.08829890112993,6917.911,95.438,540.67,538.882,0.0
52678.0,STARLINK-4074,PAYLOAD,2024-05-31 11:29:30,15.08839914,0.0001358,53.2165,169.6682,89.4474,270.6674,0.00010209,1.337e-05,0.0,0 STARLINK-4074,1 52678U 22053Y   24152.47883033  .00001337  00000-0  10209-3 0  9999,2 52678  53.2165 169.6682 0001358  89.4474 270.6674 15.08839914113031,6917.881,95.438,540.685,538.806,0.0
52678.0,STARLINK-4074,PAYLOAD,2024-05-31 17:51:03,15.08842653,0.0001375,53.2157,168.4811,86.0604,274.0545,0.00012548,1.71e-05,0.0,0 STARLINK-4074,1 52678U 22053Y   24152.74378849  .00001710  00000-0  12548-3 0  9996,2 52678  53.2157 168.4811 0001375  86.0604 274.0545 15.08842653113501,6917.872,95.437,540.688,538.786,0.0
52678.0,STARLINK-4074,PAYLOAD,2024-06-01 08:09:31,15.08838006,0.0001389,53.2157,165.8037,72.2871,287.8272,0.0003041,4.555e-05,0.0,0 STARLINK-4074,1 52678U 22053Y   24153.33995039  .00004555  00000-0  30410-3 0  9996,2 52678  53.2157 165.8037 0001389  72.2871 287.8272 15.08838006113595,6917.886,95.438,540.712,538.791,0.0
52678.0,STARLINK-4074,PAYLOAD,2024-06-01 17:41:50,15.08832222,0.0001303,53.2154,164.0196,71.535,288.5783,0.00038971,5.918e-05,0.0,0 STARLINK-4074,1 52678U 22053Y   24153.73739384  .00005918  00000-0  38971-3 0  9993,2 52678  53.2154 164.0196 0001303  71.5350 288.5783 15.08832222113228,6917.904,95.438,540.671,538.868,0.0
52678.0,STARLINK-4074,PAYLOAD,2024-06-02 04:49:32,15.08851306,0.0001411,53.2155,161.938,75.7568,284.358,9.7964e-05,1.272e-05,0.0,0 STARLINK-4074,1 52678U 22053Y   24154.20106561  .00001272  00000-0  97964-4 0  9998,2 52678  53.2155 161.9380 0001411  75.7568 284.3580 15.08851306113297,6917.846,95.437,540.687,538.735,0.0
52678.0,STARLINK-4074,PAYLOAD,2024-06-02 09:35:41,15.08853164,0.0001432,53.2157,161.046,76.0481,284.067,0.00011027,1.468e-05,0.0,0 STARLINK-4074,1 52678U 22053Y   24154.39978296  .00001468  00000-0  11027-3 0  9992,2 52678  53.2157 161.0460 0001432  76.0481 284.0670 15.08853164113752,6917.84,95.437,540.696,538.715,0.0
52678.0,STARLINK-4074,PAYLOAD,2024-06-03 04:40:19,15.08847922,0.0001476,53.216,157.4777,79.0482,281.0676,9.6949e-07,-2.73e-06,0.0,0 STARLINK-4074,1 52678U 22053Y   24155.19466504 -.00000273  00000-0  96949-6 0  9998,2 52678  53.2160 157.4777 0001476  79.0482 281.0676 15.08847922113442,6917.856,95.437,540.742,538.7,0.0
